ONEWEB-0012             
1 44057U 19010A   24249.25117090 -.00000344  00000+0 -93375-3 0  9999
2 44057  87.9174 358.2255 0001251 128.3082 231.8161 13.16592975266049
ONEWEB-0010             
1 44058U 19010B   24249.27650398  .00000078  00000+0  16958-3 0  9999
2 44058  87.9175 358.2010 0001972 116.2507 243.8827 13.16596061266095
ONEWEB-0008             
1 44059U 19010C   24249.30185617  .00000161  00000+0  38794-3 0  9996
2 44059  87.9175 358.1973 0001810  91.6044 268.5295 13.16594812266215
ONEWEB-0007             
1 44060U 19010D   24249.35310572  .00000023  00000+0  27650-4 0  9990
2 44060  87.9083  28.5183 0001422 106.9067 253.2219 13.15546884265930
ONEWEB-0006             
1 44061U 19010E   24249.43313084  .00000007  00000+0 -15012-4 0  9993
2 44061  87.9074  28.4783 0001597 106.0106 254.1200 13.15549555265998
ONEWEB-0011             
1 44062U 19010F   24249.32699789  .00000011  00000+0 -47324-5 0  9998
2 44062  87.9076  28.5016 0001926 101.5384 258.5963 13.15544677265977
ONEWEB-0013             
1 45131U 20008A   24249.28098835  .00000645  00000+0  18369-2 0  9991
2 45131  87.8689 183.5961 0001380  48.9819 311.1427 13.09385135221019
ONEWEB-0017             
1 45132U 20008B   24249.27375980 -.00000177  00000+0 -54316-3 0  9995
2 45132  87.8995 165.5941 0002001  81.8295 278.3060 13.10375936222831
